BEIDOU-2 IGSO-1 (C06)   
1 36828U 10036A   26113.83052642 -.00000109  00000+0  00000+0 0  9999
2 36828  54.2917 163.4511 0058355 224.0017 229.7808  1.00288096 57552
BEIDOU-2 G4 (C04)       
1 37210U 10057A   26117.15852046 -.00000121  00000+0  00000+0 0  9997
2 37210   3.5227  69.2314 0006459 213.4659 149.4463  1.00270118 56780
BEIDOU-2 IGSO-2 (C07)   
1 37256U 10068A   26116.87127000 -.00000222  00000+0  00000+0 0  9994
2 37256  47.6441 272.4653 0053237 211.5565 149.1985  1.00299784 56283
BEIDOU-2 IGSO-3 (C08)   
1 37384U 11013A   26114.73250720 -.00000201  00000+0  00000+0 0  9993
2 37384  62.3393  40.6572 0033701 188.3614 355.5484  1.00280536 55124
BEIDOU-2 IGSO-4 (C09)   
1 37763U 11038A   26110.95130253 -.00000015  00000+0  00000+0 0  9992
2 37763  54.5868 166.1972 0158375 231.6843 245.8930  1.00257080 54072
BEIDOU-2 IGSO-5 (C10)   
1 37948U 11073A   26116.89264193 -.00000215  00000+0  00000+0 0  9998
2 37948  47.7736 272.1759 0110629 220.6447 136.9806  1.00260215 52618
BEIDOU-2 G5 (C05)       
1 38091U 12008A   26117.07606152  .00000049  00000+0  00000+0 0  9997
2 38091   3.4486  69.9855 0012264 266.1896 325.0169  1.00273210 51854
BEIDOU-2 M3 (C11)       
1 38250U 12018A   26116.64076442 -.00000057  00000+0  00000+0 0  9990
2 38250  55.8029 306.6119 0019716 278.0782  81.7021  1.86229681 94985
BEIDOU-2 M4 (C12)       
1 38251U 12018B   26116.57298426 -.00000057  00000+0  00000+0 0  9991
2 38251  55.7028 305.8322 0011017 283.8904  75.9901  1.86229346 94987
BEIDOU-2 M6 (C14)       
1 38775U 12050B   26115.20896256 -.00000027  00000+0  00000+0 0  9999
2 38775  56.5004  64.6451 0014489 348.5468  11.3943  1.86230847 92328
BEIDOU-2 G6 (C02)       
1 38953U 12059A   26117.00967458 -.00000183  00000+0  00000+0 0  9992
2 38953   4.2943  74.0523 0010594 314.3518 274.0350  1.00274553 49390
BEIDOU-3S IGSO-1S (C31) 
1 40549U 15019A   26112.98991377 -.00000171  00000+0  00000+0 0  9991
2 40549  49.2998 296.1212 0037208 189.9963 176.4804  1.00261100 40525
BEIDOU-3S M2S (C58)     
1 40748U 15037A   26116.77619044 -.00000059  00000+0  00000+0 0  9996
2 40748  54.9169 303.8152 0007385 270.7316  89.1830  1.86231775 73166
BEIDOU-3S M1S (C57)     
1 40749U 15037B   26115.37922549 -.00000049  00000+0  00000+0 0  9998
2 40749  54.9149 303.8513 0004457  51.4305 308.6107  1.86254812 73146
BEIDOU-3S IGSO-2S (C56) 
1 40938U 15053A   26116.85580831 -.00000177  00000+0  00000+0 0  9996
2 40938  49.3035 259.3896 0063652 190.0802 170.2721  1.00271610 38845
BEIDOU-2 IGSO-6 (C13)   
1 41434U 16021A   26112.85559397 -.00000169  00000+0  00000+0 0  9994
2 41434  60.1522  38.5901 0055866 232.0601 343.5038  1.00270364 36923
BEIDOU-2 G7 (C03)       
1 41586U 16037A   26117.01496127 -.00000362  00000+0  00000+0 0  9998
2 41586   1.5956  68.8171 0007743 354.5791 267.4255  1.00265134  6377
